NORAD_CAT_ID,OBJECT_NAME,OBJECT_TYPE,EPOCH,MEAN_MOTION,ECCENTRICITY,INCLINATION,RA_OF_ASC_NODE,ARG_OF_PERICENTER,MEAN_ANOMALY,BSTAR,MEAN_MOTION_DOT,MEAN_MOTION_DDOT,TLE_LINE0,TLE_LINE1,TLE_LINE2,SEMIMAJOR_AXIS,PERIOD,APOGEE,PERIGEE,DECAYED
56778.0,STARLINK-6304,PAYLOAD,2024-02-15 11:07:40,14.98324363,0.0002774,69.9993,63.7633,270.259,89.8251,4.7725e-05,4.76e-06,0.0,0 STARLINK-6304,1 56778U 23078M   24046.46366358  .00000476  00000-0  47725-4 0  9996,2 56778  69.9993  63.7633 0002774 270.2590  89.8251 14.98324363 40340,6950.21,96.107,574.003,570.147,0.0
56778.0,STARLINK-6304,PAYLOAD,2024-02-16 04:45:09,14.98322481,0.0002808,69.9992,61.9116,269.8013,90.2824,0.00013471,1.514e-05,0.0,0 STARLINK-6304,1 56778U 23078M   24047.19802330  .00001514  00000-0  13471-3 0  9996,2 56778  69.9992  61.9116 0002808 269.8013  90.2824 14.98322481 40719,6950.216,96.107,574.033,570.13,0.0
56778.0,STARLINK-6304,PAYLOAD,2024-02-16 11:09:41,14.9833439,0.00028,69.9993,61.2384,269.9588,90.1251,-1.6942e-05,-2.95e-06,0.0,0 STARLINK-6304,1 56778U 23078M   24047.46505871 -.00000295  00000-0 -16942-4 0  9990,2 56778  69.9993  61.2384 0002800 269.9588  90.1251 14.98334390 40759,6950.179,96.107,573.99,570.098,0.0
56778.0,STARLINK-6304,PAYLOAD,2024-02-17 09:35:34,14.98328199,0.0002769,69.9994,58.8822,268.3311,91.7531,1.8289e-05,1.25e-06,0.0,0 STARLINK-6304,1 56778U 23078M   24048.39970144  .00000125  00000-0  18289-4 0  9998,2 56778  69.9994  58.8822 0002769 268.3311  91.7531 14.98328199 40893,6950.198,96.107,573.988,570.139,0.0
56778.0,STARLINK-6304,PAYLOAD,2024-02-17 17:36:14,14.98328698,0.000278,69.9995,58.0403,269.3483,90.7357,5.9152e-06,-2.2e-07,0.0,0 STARLINK-6304,1 56778U 23078M   24048.73350157 -.00000022  00000-0  59152-5 0  9994,2 56778  69.9995  58.0403 0002780 269.3483  90.7357 14.98328698 40681,6950.197,96.107,573.994,570.13,0.0
56778.0,STARLINK-6304,PAYLOAD,2024-02-18 11:13:43,14.98331761,0.0002766,69.9996,56.1887,269.7577,90.3265,7.3748e-06,-5e-08,0.0,0 STARLINK-6304,1 56778U 23078M   24049.46785922 -.00000005  00000-0  73748-5 0  9995,2 56778  69.9996  56.1887 0002766 269.7577  90.3265 14.98331761 41050,6950.187,96.107,573.975,570.13,0.0
56778.0,STARLINK-6304,PAYLOAD,2024-02-18 17:38:15,14.98332086,0.0002787,69.9995,55.5153,270.0983,89.9857,1.5048e-05,8.7e-07,0.0,0 STARLINK-6304,1 56778U 23078M   24049.73489829  .00000087  00000-0  15048-4 0  9999,2 56778  69.9995  55.5153 0002787 270.0983  89.9857 14.98332086 40834,6950.186,96.107,573.988,570.114,0.0
56778.0,STARLINK-6304,PAYLOAD,2024-02-19 11:15:43,14.98335076,0.0002981,69.999,53.6632,269.6474,90.4343,5.7279e-05,5.91e-06,0.0,0 STARLINK-6304,1 56778U 23078M   24050.46925378  .00000591  00000-0  57279-4 0  9997,2 56778  69.9990  53.6632 0002981 269.6474  90.4343 14.98335076 41206,6950.177,96.107,574.114,569.97,0.0
56778.0,STARLINK-6304,PAYLOAD,2024-02-19 12:51:51,14.98335841,0.0002984,69.999,53.4948,269.6879,90.3938,5.7414e-05,5.92e-06,0.0,0 STARLINK-6304,1 56778U 23078M   24050.53601303  .00000592  00000-0  57414-4 0  9996,2 56778  69.9990  53.4948 0002984 269.6879  90.3938 14.98335841 40956,6950.175,96.107,574.114,569.966,0.0
56778.0,STARLINK-6304,PAYLOAD,2024-02-19 19:16:24,14.98323385,0.000299,69.999,52.8215,268.5906,91.4911,-8.7226e-05,-1.133e-05,0.0,0 STARLINK-6304,1 56778U 23078M   24050.80306448 -.00001133  00000-0 -87226-4 0  9996,2 56778  69.9990  52.8215 0002990 268.5906  91.4911 14.98323385 41259,6950.213,96.107,574.156,570.0,0.0
56778.0,STARLINK-6304,PAYLOAD,2024-02-19 22:28:41,14.98320662,0.0003025,69.999,52.4848,267.8633,92.218,-6.3585e-05,-8.51e-06,0.0,0 STARLINK-6304,1 56778U 23078M   24050.93658588 -.00000851  00000-0 -63585-4 0  9993,2 56778  69.9990  52.4848 0003025 267.8633  92.2180 14.98320662 41012,6950.222,96.108,574.189,569.984,0.0
56778.0,STARLINK-6304,PAYLOAD,2024-02-20 12:53:53,14.98328023,0.0003083,69.9991,50.9697,269.6387,90.4419,-3.0957e-05,-4.62e-06,0.0,0 STARLINK-6304,1 56778U 23078M   24051.53742227 -.00000462  00000-0 -30957-4 0  9999,2 56778  69.9991  50.9697 0003083 269.6387  90.4419 14.98328023 41102,6950.199,96.107,574.207,569.921,0.0
56778.0,STARLINK-6304,PAYLOAD,2024-02-20 19:18:25,14.98330466,0.0003091,69.9991,50.2964,269.4576,90.6228,-2.2447e-05,-3.61e-06,0.0,0 STARLINK-6304,1 56778U 23078M   24051.80446046 -.00000361  00000-0 -22447-4 0  9992,2 56778  69.9991  50.2964 0003091 269.4576  90.6228 14.98330466 41406,6950.191,96.107,574.205,569.908,0.0
56778.0,STARLINK-6304,PAYLOAD,2024-02-20 22:30:41,14.98331521,0.0003092,69.9991,49.9598,269.4181,90.6623,6.9642e-06,-1e-07,0.0,0 STARLINK-6304,1 56778U 23078M   24051.93797897 -.00000010  00000-0  69642-5 0  9998,2 56778  69.9991  49.9598 0003092 269.4181  90.6623 14.98331521 41162,6950.188,96.107,574.202,569.904,0.0
56778.0,STARLINK-6304,PAYLOAD,2024-02-21 11:19:45,14.98337367,0.00031,69.9992,48.613,269.5772,90.5032,7.1563e-05,7.61e-06,0.0,0 STARLINK-6304,1 56778U 23078M   24052.47205254  .00000761  00000-0  71563-4 0  9995,2 56778  69.9992  48.6130 0003100 269.5772  90.5032 14.98337367 41503,6950.17,96.107,574.19,569.881,0.0
56778.0,STARLINK-6304,PAYLOAD,2024-02-21 12:55:53,14.9833836,0.00031,69.9992,48.4447,269.6217,90.4587,6.9198e-05,7.33e-06,0.0,0 STARLINK-6304,1 56778U 23078M   24052.53881165  .00000733  00000-0  69198-4 0  9993,2 56778  69.9992  48.4447 0003100 269.6217  90.4587 14.98338360 41257,6950.167,96.106,574.187,569.877,0.0
56778.0,STARLINK-6304,PAYLOAD,2024-02-21 22:32:42,14.9834319,0.0003166,69.9992,47.4348,270.1352,89.9444,-0.00031227,-3.818e-05,0.0,0 STARLINK-6304,1 56778U 23078M   24052.93937636 -.00003818  00000-0 -31227-3 0  9992,2 56778  69.9992  47.4348 0003166 270.1352  89.9444 14.98343190 41314,6950.152,96.106,574.218,569.817,0.0
56778.0,STARLINK-6304,PAYLOAD,2024-02-22 03:21:09,14.98290495,0.000299,69.9992,46.9299,271.8958,88.1859,-0.00030621,-3.741e-05,0.0,0 STARLINK-6304,1 56778U 23078M   24053.13969280 -.00003741  00000-0 -30621-3 0  9997,2 56778  69.9992  46.9299 0002990 271.8958  88.1859 14.98290495 41609,6950.315,96.11,574.258,570.102,0.0
56778.0,STARLINK-6304,PAYLOAD,2024-02-22 12:57:58,14.98293658,0.0002975,69.9993,45.92,271.7054,88.3764,-0.00029635,-3.624e-05,0.0,0 STARLINK-6304,1 56778U 23078M   24053.54025911 -.00003624  00000-0 -29635-3 0  9999,2 56778  69.9993  45.9200 0002975 271.7054  88.3764 14.98293658 41409,6950.305,96.109,574.238,570.103,0.0
56778.0,STARLINK-6304,PAYLOAD,2024-02-22 19:22:28,14.98327816,0.0002879,69.9993,45.2466,275.1694,84.9136,5.7383e-05,5.92e-06,0.0,0 STARLINK-6304,1 56778U 23078M   24053.80727169  .00000592  00000-0  57383-4 0  9993,2 56778  69.9993  45.2466 0002879 275.1694  84.9136 14.98327816 41709,6950.2,96.107,574.066,570.064,0.0
56778.0,STARLINK-6304,PAYLOAD,2024-02-22 22:34:44,14.98331248,0.000283,69.9993,44.9099,273.6231,86.4605,7.1962e-05,7.66e-06,0.0,0 STARLINK-6304,1 56778U 23078M   24053.94078928  .00000766  00000-0  71962-4 0  9992,2 56778  69.9993  44.9099 0002830 273.6231  86.4605 14.98331248 41469,6950.189,96.107,574.021,570.087,0.0
56778.0,STARLINK-6304,PAYLOAD,2024-02-23 08:11:32,14.98338216,0.0002808,69.9994,43.9,273.6879,86.3959,9.6544e-05,1.059e-05,0.0,0 STARLINK-6304,1 56778U 23078M   24054.34134363  .00001059  00000-0  96544-4 0  9992,2 56778  69.9994  43.9000 0002808 273.6879  86.3959 14.98338216 41782,6950.167,96.106,573.984,570.081,0.0
56778.0,STARLINK-6304,PAYLOAD,2024-02-23 22:36:44,14.98340793,0.0002778,69.9994,42.3848,272.7226,87.3615,4.9109e-05,4.93e-06,0.0,0 STARLINK-6304,1 56778U 23078M   24054.94218000  .00000493  00000-0  49109-4 0  9995,2 56778  69.9994  42.3848 0002778 272.7226  87.3615 14.98340793 41612,6950.16,96.106,573.955,570.094,0.0
56778.0,STARLINK-6304,PAYLOAD,2024-02-24 08:13:32,14.98342065,0.0002754,69.9995,41.375,274.5023,85.5821,0.00019164,2.195e-05,0.0,0 STARLINK-6304,1 56778U 23078M   24055.34273396  .00002195  00000-0  19164-3 0  9997,2 56778  69.9995  41.3750 0002754 274.5023  85.5821 14.98342065 41931,6950.156,96.106,573.935,570.107,0.0
56778.0,STARLINK-6304,PAYLOAD,2024-02-24 16:14:13,14.98307743,0.0002444,69.9997,40.5333,273.8887,86.1993,0.0006438,7.592e-05,0.0,0 STARLINK-6304,1 56778U 23078M   24055.67654665  .00007592  00000-0  64380-3 0  9991,2 56778  69.9997  40.5333 0002444 273.8887  86.1993 14.98307743 41983,6950.262,96.108,573.825,570.428,0.0
56778.0,STARLINK-6304,PAYLOAD,2024-02-24 22:38:45,14.98323624,0.0002196,69.9996,39.8597,276.2606,83.8302,0.00035284,4.119e-05,0.0,0 STARLINK-6304,1 56778U 23078M   24055.94358450  .00004119  00000-0  35284-3 0  9997,2 56778  69.9996  39.8597 0002196 276.2606  83.8302 14.98323624 41765,6950.213,96.107,573.604,570.551,0.0
56778.0,STARLINK-6304,PAYLOAD,2024-02-25 05:03:17,14.98339368,0.0002465,69.9997,39.1864,272.1709,87.9167,-1.3272e-05,-2.51e-06,0.0,0 STARLINK-6304,1 56778U 23078M   24056.21062042 -.00000251  00000-0 -13272-4 0  9996,2 56778  69.9997  39.1864 0002465 272.1709  87.9167 14.98339368 42064,6950.164,96.106,573.742,570.316,0.0
56778.0,STARLINK-6304,PAYLOAD,2024-02-25 08:15:33,14.98350451,0.0002626,69.9998,38.8502,272.8499,87.236,-9.7086e-05,-1.252e-05,0.0,0 STARLINK-6304,1 56778U 23078M   24056.34413370 -.00001252  00000-0 -97086-4 0  9991,2 56778  69.9998  38.8502 0002626 272.8499  87.2360 14.98350451 42088,6950.13,96.106,573.82,570.17,0.0
56778.0,STARLINK-6304,PAYLOAD,2024-02-25 16:16:14,14.98338577,0.0002253,70.0013,38.0084,275.5157,84.5745,-9.0307e-05,-1.17e-05,0.0,0 STARLINK-6304,1 56778U 23078M   24056.67793988 -.00001170  00000-0 -90307-4 0  9991,2 56778  70.0013  38.0084 0002253 275.5157  84.5745 14.98338577 42131,6950.166,96.106,573.597,570.465,0.0
56778.0,STARLINK-6304,PAYLOAD,2024-02-26 08:17:33,14.98343256,0.0002477,70.0005,36.3258,270.5921,89.4954,-6.5223e-05,-8.71e-06,0.0,0 STARLINK-6304,1 56778U 23078M   24057.34553044 -.00000871  00000-0 -65223-4 0  9999,2 56778  70.0005  36.3258 0002477 270.5921  89.4954 14.98343256 42235,6950.152,96.106,573.738,570.295,0.0
